STARLINK-30908          
1 58424U 23180Y   26068.00995477  .00001946  00000+0  82217-4 0  9993
2 58424  43.0016  56.1487 0001301 269.1344  90.9358 15.26739149127522
TIANHUI 7               
1 67300U 25314A   26052.67009905  .00006572  00000+0  25701-3 0  9999
2 67300  97.4117 129.4508 0001691  83.9579 276.1853 15.26178925  8178
